0 COSMOS 2291
1 23267U 94060A   13280.54683012  .00000031  00000-0  10000-3 0  5301
2 23267 013.2783 032.9464 0009164 086.7727 273.3333 01.00274672 69740
0 COSMOS 2291
1 23267U 94060A   13283.53847281  .00000024  00000-0  10000-3 0  5316
2 23267 013.2828 032.9114 0009154 086.5378 273.5673 01.00275468 69777
0 COSMOS 2291
1 23267U 94060A   13286.53008372  .00000019  00000-0  10000-3 0  5324
2 23267 013.2871 032.8766 0008919 086.0232 274.0755 01.00276260 69801
0 COSMOS 2291
1 23267U 94060A   13287.52727344  .00000019  00000-0  10000-3 0  5332
2 23267 013.2888 032.8648 0008618 085.5102 274.5801 01.00276516 69816
0 COSMOS 2291
1 23267U 94060A   13288.52445324  .00000019  00000-0  10000-3 0  5349
2 23267 013.2902 032.8532 0008038 087.0918 272.9847 01.00276771 69829
0 COSMOS 2291
1 23267U 94060A   13290.51880857  .00000020  00000-0  10000-3 0  5358
2 23267 013.2936 032.8300 0007683 087.8507 272.2099 01.00277313 69843
0 COSMOS 2291
1 23267U 94060A   13293.51034732  .00000024  00000-0  10000-3 0  5369
2 23267 013.2978 032.7953 0007728 087.9178 272.1351 01.00278136 69874
